GPS BIIR-2  (PRN 13)    
1 24876U 97035A   25181.70204813  .00000001  00000+0  00000+0 0  9992
2 24876  55.8148 112.3261 0092013  54.5049 306.3397  2.00562504204908
GPS BIIR-4  (PRN 20)    
1 26360U 00025A   25181.59344825 -.00000097  00000+0  00000+0 0  9996
2 26360  54.9446  33.5132 0036357 232.9146 135.3597  2.00549190184218
GPS BIIR-5  (PRN 22)    
1 26407U 00040A   25181.53992416  .00000010  00000+0  00000+0 0  9998
2 26407  54.9345 229.1336 0132932 298.7899 233.7296  2.00566092182899
GPS BIIR-8  (PRN 16)    
1 27663U 03005A   25181.12603035  .00000009  00000+0  00000+0 0  9996
2 27663  54.9692 228.9601 0142507  50.2376 320.6348  2.00553553164253
GPS BIIR-11 (PRN 19)    
1 28190U 04009A   25181.45504171 -.00000075  00000+0  00000+0 0  9998
2 28190  55.1253 289.8770 0106175 161.9783 246.0037  2.00567041155894
GPS BIIR-13 (PRN 02)    
1 28474U 04045A   25181.32972125 -.00000101  00000+0  00000+0 0  9997
2 28474  55.3175 339.0526 0165792 304.1694  72.7861  2.00562109151371
GPS BIIRM-1 (PRN 17)    
1 28874U 05038A   25180.34774490 -.00000065  00000+0  00000+0 0  9999
2 28874  55.1710 287.3962 0132695 290.2585  62.3534  2.00559417144751
GPS BIIRM-2 (PRN 31)    
1 29486U 06042A   25181.13219924  .00000057  00000+0  00000+0 0  9999
2 29486  54.6868 165.3089 0104331  46.8376  53.4611  2.00561906137332
GPS BIIRM-3 (PRN 12)    
1 29601U 06052A   25181.42227202  .00000011  00000+0  00000+0 0  9999
2 29601  55.0115 227.9548 0084849  86.6266 274.4136  2.00563978136356
GPS BIIRM-4 (PRN 15)    
1 32260U 07047A   25181.72814903 -.00000032  00000+0  00000+0 0  9996
2 32260  53.8369  94.5777 0162015  81.8417 280.0057  2.00571582129769
GPS BIIRM-5 (PRN 29)    
1 32384U 07062A   25181.79011124 -.00000075  00000+0  00000+0 0  9998
2 32384  55.3172 288.2586 0032421 159.0103  14.4262  2.00569052128464
GPS BIIRM-6 (PRN 07)    
1 32711U 08012A   25181.14485952  .00000056  00000+0  00000+0 0  9999
2 32711  54.4660 163.9808 0199849 243.5302 114.3869  2.00559064126692
GPS BIIRM-8 (PRN 05)    
1 35752U 09043A   25181.63865480 -.00000091  00000+0  00000+0 0  9994
2 35752  55.9740  41.2902 0055747  78.8948 291.7947  2.00574998116296
GPS BIIF-1  (PRN 25)    
1 36585U 10022A   25181.50828352  .00000019  00000+0  00000+0 0  9990
2 36585  54.3358 222.7329 0120505  64.0595 333.5506  2.00570671110540
GPS BIIF-3  (PRN 24)    
1 38833U 12053A   25181.32431360  .00000054  00000+0  00000+0 0  9992
2 38833  53.5412 158.0097 0166738  60.8613 300.7694  2.00563197 92386
GPS BIIF-4  (PRN 27)    
1 39166U 13023A   25181.18829198 -.00000067  00000+0  00000+0 0  9999
2 39166  54.7866 283.2938 0132934  48.1448 313.0158  2.00560982 88828
GPS BIIF-5  (PRN 30)    
1 39533U 14008A   25181.18686613  .00000055  00000+0  00000+0 0  9990
2 39533  53.6183 163.6727 0078796 226.1070 133.2194  2.00564518 82620
GPS BIIF-6  (PRN 06)    
1 39741U 14026A   25181.46557746 -.00000100  00000+0  00000+0 0  9998
2 39741  56.6431 345.1981 0034691 319.6952  40.0482  2.00573239 81480
GPS BIIF-7  (PRN 09)    
1 40105U 14045A   25181.55483544 -.00000016  00000+0  00000+0 0  9995
2 40105  55.1255 102.4919 0029934 115.8794 244.4334  2.00562098 79027
GPS BIIF-8  (PRN 03)    
1 40294U 14068A   25180.92624147 -.00000086  00000+0  00000+0 0  9992
2 40294  56.7323  44.5564 0061528  67.3034 293.4036  2.00554689 78146
GPS BIIF-9  (PRN 26)    
1 40534U 15013A   25181.06538274  .00000021  00000+0  00000+0 0  9999
2 40534  53.2340 218.7451 0099117  35.1961 325.5174  2.00572498 74763
GPS BIIF-10 (PRN 08)    
1 40730U 15033A   25181.72637535 -.00000069  00000+0  00000+0 0  9995
2 40730  54.2656 281.5586 0104024  25.2148 335.3259  2.00574337 72945
GPS BIIF-11 (PRN 10)    
1 41019U 15062A   25181.28307917 -.00000087  00000+0  00000+0 0  9997
2 41019  56.7089  44.3986 0103647 228.0815 131.0843  2.00566875 70773
GPS BIIF-12 (PRN 32)    
1 41328U 16007A   25180.86674607 -.00000013  00000+0  00000+0 0  9995
2 41328  55.3077 103.4433 0087898 242.9185 116.1847  2.00569172 68819
GPS BIII-1  (PRN 04)    
1 43873U 18109A   25181.79732594 -.00000011  00000+0  00000+0 0  9998
2 43873  55.4727 106.0627 0033602 196.5660   8.4759  2.00571426 48020
GPS BIII-2  (PRN 18)    
1 44506U 19056A   25181.89060876 -.00000101  00000+0  00000+0 0  9992
2 44506  55.7793 345.0907 0053377 193.3177 337.9701  2.00562573 43020
GPS BIII-3  (PRN 23)    
1 45854U 20041A   25180.98809075 -.00000088  00000+0  00000+0 0  9990
2 45854  56.4266  42.6387 0053938 199.0645 344.9193  2.00566375 36971
GPS BIII-4  (PRN 14)    
1 46826U 20078A   25181.33614600  .00000014  00000+0  00000+0 0  9996
2 46826  54.0562 225.0510 0060671 202.4062 201.3302  2.00558548 34455
GPS BIII-5  (PRN 11)    
1 48859U 21054A   25181.49562323 -.00000103  00000+0  00000+0 0  9990
2 48859  55.3119 346.5824 0020367 225.8408 124.0433  2.00563036 29697
GPS BIII-6  (PRN 28)    
1 55268U 23009A   25181.20994137  .00000058  00000+0  00000+0 0  9993
2 55268  55.0967 162.3434 0003701 329.0256 213.7916  2.00568063 18188
GPS BIII-7  (PRN 01)    
1 62339U 24242A   25180.79371568 -.00000104  00000+0  00000+0 0  9993
2 62339  54.9715 348.4554 0005890 349.3655 329.9616  2.00558920  4186
GPS BIII-8  (PRN 21)    
1 64202U 25116A   25178.33933604 -.00000077  00000+0  00000+0 0  9996
2 64202  54.9780  45.4413 0001432 300.7010 235.6146  2.00570136   754
